API VERSION: 1.2
API SOURCE: NASA/JPL Horizons API



*******************************************************************************
Ephemeris / API_USER Sun Mar 29 01:55:59 2026 Pasadena, USA      / Horizons
*******************************************************************************
Target body name: Uranus (799)                    {source: ura184_merged}
Center body name: Earth (399)                     {source: DE441}
Center-site name: BODY CENTER
*******************************************************************************
Start time      : A.D. 2025-Aug-08 11:28:19.2000 TDB
Stop  time      : A.D. 2025-Aug-10 11:28:19.2000 TDB
Step-size       : 60 minutes
*******************************************************************************
Center geodetic : 0.0, 0.0, 0.0                   {E-lon(deg),Lat(deg),Alt(km)}
Center cylindric: 0.0, 0.0, 0.0                   {E-lon(deg),Dxy(km),Dz(km)}
Center radii    : 6378.137, 6378.137, 6356.752 km {Equator_a, b, pole_c}
Output units    : AU-D
Calendar mode   : Mixed Julian/Gregorian
Output type     : GEOMETRIC cartesian states
Output format   : 3 (position, velocity, LT, range, range-rate)
EOP file        : eop.260327.p260623
EOP coverage    : DATA-BASED 1962-JAN-20 TO 2026-MAR-27. PREDICTS-> 2026-JUN-22
Reference frame : Ecliptic of J2000.0
*******************************************************************************
            JDTDB,            Calendar Date (TDB),                      X,                      Y,                      Z,                     VX,                     VY,                     VZ,                     LT,                     RG,                     RR,
**************************************************************************************************************************************************************************************************************************************************************************
$$SOE
2460895.978000000, A.D. 2025-Aug-08 11:28:19.2000,  9.647483891137021E+00,  1.723586658140239E+01, -7.317495959835929E-02, -1.507124771690040E-02, -1.036208305485250E-02,  5.203987858010906E-05,  1.140799230076671E-01,  1.975232636466814E+01, -1.640327841091931E-02,
2460896.019666667, A.D. 2025-Aug-08 12:28:19.2000,  9.646856100543026E+00,  1.723543465444599E+01, -7.317279127093566E-02, -1.506269997256152E-02, -1.037040991361065E-02,  5.203981972297335E-05,  1.140759752590467E-01,  1.975164283318338E+01, -1.640623173284917E-02,
2460896.061333333, A.D. 2025-Aug-08 13:28:19.2000,  9.646228666207717E+00,  1.723500238065457E+01, -7.317062294793303E-02, -1.505414730257464E-02, -1.037873113378301E-02,  5.203967341981115E-05,  1.140720268005318E-01,  1.975095917878417E+01, -1.640917830349169E-02,
2460896.103000000, A.D. 2025-Aug-08 14:28:19.2000,  9.645601588336007E+00,  1.723456976026326E+01, -7.316845463207988E-02, -1.504558972221323E-02, -1.038704670704216E-02,  5.203948434335678E-05,  1.140680776337470E-01,  1.975027540175185E+01, -1.641211812254327E-02,
2460896.144666667, A.D. 2025-Aug-08 15:28:19.2000,  9.644974867132250E+00,  1.723413679350752E+01, -7.316628632416987E-02, -1.503702724215749E-02, -1.039535662554463E-02,  5.203930023292075E-05,  1.140641277603173E-01,  1.974959150236776E+01, -1.641505118788897E-02,
2460896.186333333, A.D. 2025-Aug-08 16:28:19.2000,  9.644348502800467E+00,  1.723370348062311E+01, -7.316411802296070E-02, -1.502845986794730E-02, -1.040366088216912E-02,  5.203917136218907E-05,  1.140601771818684E-01,  1.974890748091338E+01, -1.641797749554166E-02,
2460896.228000000, A.D. 2025-Aug-08 17:28:19.2000,  9.643722495544560E+00,  1.723326982184606E+01, -7.316194972506490E-02, -1.501988759944458E-02, -1.041195947076888E-02,  5.203914989926854E-05,  1.140562259000273E-01,  1.974822333767040E+01, -1.642089703959784E-02,
2460896.269666667, A.D. 2025-Aug-08 18:28:19.2000,  9.643096845568571E+00,  1.723283581741266E+01, -7.315978142490201E-02, -1.501131043033562E-02, -1.042025238642935E-02,  5.203928916410534E-05,  1.140522739164224E-01,  1.974753907292079E+01, -1.642380981221726E-02,
2460896.311333333, A.D. 2025-Aug-08 19:28:19.2000,  9.642471553076939E+00,  1.723240146755937E+01, -7.315761311465878E-02, -1.500272834770624E-02, -1.042853962572077E-02,  5.203964279316206E-05,  1.140483212326844E-01,  1.974685468694690E+01, -1.642671580363346E-02,
2460896.353000000, A.D. 2025-Aug-08 20:28:19.2000,  9.641846618274780E+00,  1.723196677252272E+01, -7.315544478428915E-02, -1.499414133172303E-02, -1.043682118693496E-02,  5.204026382572017E-05,  1.140443678504465E-01,  1.974617018003151E+01, -1.642961500220198E-02,
2460896.394666667, A.D. 2025-Aug-08 21:28:19.2000,  9.641222041368186E+00,  1.723153173253931E+01, -7.315327642157475E-02, -1.498554935545118E-02, -1.044509707029554E-02,  5.204120373051175E-05,  1.140404137713450E-01,  1.974548555245791E+01, -1.643250739449200E-02,
2460896.436333333, A.D. 2025-Aug-08 22:28:19.2000,  9.640597822564521E+00,  1.723109634784569E+01, -7.315110801220233E-02, -1.497695238483606E-02, -1.045336727813115E-02,  5.204251139519904E-05,  1.140364589970196E-01,  1.974480080451004E+01, -1.643539296542542E-02,
2460896.478000000, A.D. 2025-Aug-08 23:28:19.2000,  9.639973962072714E+00,  1.723066061867823E+01, -7.314893953988715E-02, -1.496835037886904E-02, -1.046163181500257E-02,  5.204423210430884E-05,  1.140325035291139E-01,  1.974411593647243E+01, -1.643827169846581E-02,
2460896.519666667, A.D. 2025-Aug-09 00:28:19.2000,  9.639350460103543E+00,  1.723022454527311E+01, -7.314677098655471E-02, -1.495974328995126E-02, -1.046989068777613E-02,  5.204640653362113E-05,  1.140285473692753E-01,  1.974343094863038E+01, -1.644114357585689E-02,
2460896.561333333, A.D. 2025-Aug-09 01:28:19.2000,  9.638727316869891E+00,  1.722978812786613E+01, -7.314460233254956E-02, -1.495113106445924E-02, -1.047814390563776E-02,  5.204906979044471E-05,  1.140245905191559E-01,  1.974274584126992E+01, -1.644400857890822E-02,
2460896.603000000, A.D. 2025-Aug-09 02:28:19.2000,  9.638104532586995E+00,  1.722935136669269E+01, -7.314243355688305E-02, -1.494251364350880E-02, -1.048639148004428E-02,  5.205225052941721E-05,  1.140206329804124E-01,  1.974206061467789E+01, -1.644686668832286E-02,
2460896.644666667, A.D. 2025-Aug-09 03:28:19.2000,  9.637482107472634E+00,  1.722891426198765E+01, -7.314026463751631E-02, -1.493389096390279E-02, -1.049463342461086E-02,  5.205597017285688E-05,  1.140166747547060E-01,  1.974137526914191E+01, -1.644971788455955E-02,
2460896.686333333, A.D. 2025-Aug-09 04:28:19.2000,  9.636860041747294E+00,  1.722847681398528E+01, -7.313809555169086E-02, -1.492526295923876E-02, -1.050286975493676E-02,  5.206024226297635E-05,  1.140127158437028E-01,  1.974068980495046E+01, -1.645256214821934E-02,
2460896.728000000, A.D. 2025-Aug-09 05:28:19.2000,  9.636238335634273E+00,  1.722803902291914E+01, -7.313592627624745E-02, -1.491662956114550E-02, -1.051110048837337E-02,  5.206507197007186E-05,  1.140087562490732E-01,  1.974000422239277E+01, -1.645539946044539E-02,
2460896.769666667, A.D. 2025-Aug-09 06:28:19.2000,  9.635616989359734E+00,  1.722760088902206E+01, -7.313375678799248E-02, -1.490799070060917E-02, -1.051932564374125E-02,  5.207045577691127E-05,  1.140047959724922E-01,  1.973931852175889E+01, -1.645822980332233E-02,
2460896.811333333, A.D. 2025-Aug-09 07:28:19.2000,  9.634996003152706E+00,  1.722716241252603E+01, -7.313158706406872E-02, -1.489934630934478E-02, -1.052754524100505E-02,  5.207638135454853E-05,  1.140008350156392E-01,  1.973863270333953E+01, -1.646105316026166E-02,
2460896.853000000, A.D. 2025-Aug-09 08:28:19.2000,  9.634375377245025E+00,  1.722672359366221E+01, -7.312941708231137E-02, -1.489069632116479E-02, -1.053575930091699E-02,  5.208282763901470E-05,  1.139968733801970E-01,  1.973794676742610E+01, -1.646386951635891E-02,
2460896.894666667, A.D. 2025-Aug-09 09:28:19.2000,  9.633755111871217E+00,  1.722628443266089E+01, -7.312724682160747E-02, -1.488204067329597E-02, -1.054396784464065E-02,  5.208976511174408E-05,  1.139929110678520E-01,  1.973726071431058E+01, -1.646667885870876E-02,
2460896.936333333, A.D. 2025-Aug-09 10:28:19.2000,  9.633135207268333E+00,  1.722584492975147E+01, -7.312507626224737E-02, -1.487337930759617E-02, -1.055217089336798E-02,  5.209715627981763E-05,  1.139889480802933E-01,  1.973657454428543E+01, -1.646948117666634E-02,
2460896.978000000, A.D. 2025-Aug-09 11:28:19.2000,  9.632515663675729E+00,  1.722540508516248E+01, -7.312290538623389E-02, -1.486471217162736E-02, -1.056036846794245E-02,  5.210495634482024E-05,  1.139849844192123E-01,  1.973588825764353E+01, -1.647227646204390E-02,
2460897.019666667, A.D. 2025-Aug-09 12:28:19.2000,  9.631896481334815E+00,  1.722496489912157E+01, -7.312073417758193E-02, -1.485603921954646E-02, -1.056856058850086E-02,  5.211311404204028E-05,  1.139810200863023E-01,  1.973520185467802E+01, -1.647506470923564E-02,
2460897.061333333, A.D. 2025-Aug-09 13:28:19.2000,  9.631277660488752E+00,  1.722452437185558E+01, -7.311856262255033E-02, -1.484736041278478E-02, -1.057674727414534E-02,  5.212157262501641E-05,  1.139770550832572E-01,  1.973451533568222E+01, -1.647784591526596E-02,
2460897.103000000, A.D. 2025-Aug-09 14:28:19.2000,  9.630659201382162E+00,  1.722408350359062E+01, -7.311639070986584E-02, -1.483867572049684E-02, -1.058492854265578E-02,  5.213027096425937E-05,  1.139730894117716E-01,  1.973382870094954E+01, -1.648062007976093E-02,
2460897.144666667, A.D. 2025-Aug-09 15:28:19.2000,  9.630041104260776E+00,  1.722364229455204E+01, -7.311421843086656E-02, -1.482998511977140E-02, -1.059310441025019E-02,  5.213914472379126E-05,  1.139691230735398E-01,  1.973314195077334E+01, -1.648338720484570E-02,
2460897.186333333, A.D. 2025-Aug-09 16:28:19.2000,  9.629423369371121E+00,  1.722320074496458E+01, -7.311204577962299E-02, -1.482128859561014E-02, -1.060127489139888E-02,  5.214812757536056E-05,  1.139651560702554E-01,  1.973245508544685E+01, -1.648614729497565E-02,
